{"fetched_at":"2026-07-21T17:53:05.430Z","source":"https://celestrak.org/NORAD/elements/gp.php?GROUP=oneweb&FORMAT=JSON","constellation":"oneweb","records":[{"OBJECT_NAME":"ONEWEB-0674","OBJECT_ID":"2023-029AP","EPOCH":"2026-07-21T03:05:55.263840","CLASSIFICATION_TYPE":"U","MEAN_MOTION":13.14501353,"ECCENTRICITY":0.00016684,"INCLINATION":87.8956,"RA_OF_ASC_NODE":282.9525,"ARG_OF_PERICENTER":106.9923,"MEAN_ANOMALY":253.1389,"EPHEMERIS_TYPE":0,"NORAD_CAT_ID":55833,"ELEMENT_SET_NO":999,"REV_AT_EPOCH":16387,"BSTAR":0.00041727912,"MEAN_MOTION_DOT":0.00000167,"MEAN_MOTION_DDOT":0},{"OBJECT_NAME":"ONEWEB-0675","OBJECT_ID":"2023-029AQ","EPOCH":"2026-07-21T02:20:11.325984","CLASSIFICATION_TYPE":"U","MEAN_MOTION":13.19725727,"ECCENTRICITY":0.00022091,"INCLINATION":87.9185,"RA_OF_ASC_NODE":298.2252,"ARG_OF_PERICENTER":95.3585,"MEAN_ANOMALY":264.78,"EPHEMERIS_TYPE":0,"NORAD_CAT_ID":55834,"ELEMENT_SET_NO":999,"REV_AT_EPOCH":16339,"BSTAR":-0.000034540293,"MEAN_MOTION_DOT":-1e-8,"MEAN_MOTION_DDOT":0},{"OBJECT_NAME":"ONEWEB-0720","OBJECT_ID":"2023-029AR","EPOCH":"2026-07-20T17:02:55.358016","CLASSIFICATION_TYPE":"U","MEAN_MOTION":13.19726208,"ECCENTRICITY":0.00022218,"INCLINATION":87.9182,"RA_OF_ASC_NODE":298.3018,"ARG_OF_PERICENTER":107.22,"MEAN_ANOMALY":252.9176,"EPHEMERIS_TYPE":0,"NORAD_CAT_ID":55835,"ELEMENT_SET_NO":999,"REV_AT_EPOCH":16326,"BSTAR":-0.00010991695,"MEAN_MOTION_DOT":-3.1e-7,"MEAN_MOTION_DDOT":0},{"OBJECT_NAME":"ONEWEB-0537","OBJECT_ID":"2023-043A","EPOCH":"2026-07-21T02:08:31.056576","CLASSIFICATION_TYPE":"U","MEAN_MOTION":13.16593924,"ECCENTRICITY":0.00021331,"INCLINATION":87.9078,"RA_OF_ASC_NODE":222.037,"ARG_OF_PERICENTER":87.4333,"MEAN_ANOMALY":272.7042,"EPHEMERIS_TYPE":0,"NORAD_CAT_ID":56046,"ELEMENT_SET_NO":999,"REV_AT_EPOCH":16342,"BSTAR":-0.0001202796,"MEAN_MOTION_DOT":-3.3e-7,"MEAN_MOTION_DDOT":0},{"OBJECT_NAME":"ONEWEB-0538","OBJECT_ID":"2023-043B","EPOCH":"2026-07-21T01:59:23.581248","CLASSIFICATION_TYPE":"U","MEAN_MOTION":13.16594349,"ECCENTRICITY":0.00023421,"INCLINATION":87.9081,"RA_OF_ASC_NODE":222.0412,"ARG_OF_PERICENTER":91.5764,"MEAN_ANOMALY":268.5635,"EPHEMERIS_TYPE":0,"NORAD_CAT_ID":56047,"ELEMENT_SET_NO":999,"REV_AT_EPOCH":16343,"BSTAR":-0.00015727708,"MEAN_MOTION_DOT":-4.7e-7,"MEAN_MOTION_DDOT":0},{"OBJECT_NAME":"ONEWEB-0546","OBJECT_ID":"2023-043C","EPOCH":"2026-07-21T07:09:27.760608","CLASSIFICATION_TYPE":"U","MEAN_MOTION":13.1659376,"ECCENTRICITY":0.00021468,"INCLINATION":87.9084,"RA_OF_ASC_NODE":221.9987,"ARG_OF_PERICENTER":73.6123,"MEAN_ANOMALY":286.5244,"EPHEMERIS_TYPE":0,"NORAD_CAT_ID":56048,"ELEMENT_SET_NO":999,"REV_AT_EPOCH":16345,"BSTAR":-0.00020625222,"MEAN_MOTION_DOT":-6.6e-7,"MEAN_MOTION_DDOT":0},{"OBJECT_NAME":"ONEWEB-0547","OBJECT_ID":"2023-043D","EPOCH":"2026-07-21T03:50:33.443520","CLASSIFICATION_TYPE":"U","MEAN_MOTION":13.21822985,"ECCENTRICITY":0.00022426,"INCLINATION":87.9236,"RA_OF_ASC_NODE":237.2135,"ARG_OF_PERICENTER":97.6829,"MEAN_ANOMALY":262.4559,"EPHEMERIS_TYPE":0,"NORAD_CAT_ID":56049,"ELEMENT_SET_NO":999,"REV_AT_EPOCH":16271,"BSTAR":-0.0003183897,"MEAN_MOTION_DOT":-0.00000118,"MEAN_MOTION_DDOT":0},{"OBJECT_NAME":"ONEWEB-0548","OBJECT_ID":"2023-043E","EPOCH":"2026-07-21T02:16:28.360416","CLASSIFICATION_TYPE":"U","MEAN_MOTION":13.16595149,"ECCENTRICITY":0.00016052,"INCLINATION":87.9076,"RA_OF_ASC_NODE":222.0342,"ARG_OF_PERICENTER":95.5477,"MEAN_ANOMALY":264.5837,"EPHEMERIS_TYPE":0,"NORAD_CAT_ID":56050,"ELEMENT_SET_NO":999,"REV_AT_EPOCH":16342,"BSTAR":-0.000019860163,"MEAN_MOTION_DOT":5e-8,"MEAN_MOTION_DDOT":0},{"OBJECT_NAME":"ONEWEB-0549","OBJECT_ID":"2023-043F","EPOCH":"2026-07-21T05:31:05.084544","CLASSIFICATION_TYPE":"U","MEAN_MOTION":13.21823759,"ECCENTRICITY":0.00024606,"INCLINATION":87.9228,"RA_OF_ASC_NODE":237.2042,"ARG_OF_PERICENTER":94.3329,"MEAN_ANOMALY":265.8086,"EPHEMERIS_TYPE":0,"NORAD_CAT_ID":56051,"ELEMENT_SET_NO":999,"REV_AT_EPOCH":16272,"BSTAR":-0.00011362137,"MEAN_MOTION_DOT":-3.4e-7,"MEAN_MOTION_DDOT":0},{"OBJECT_NAME":"ONEWEB-0550","OBJECT_ID":"2023-043G","EPOCH":"2026-07-21T03:22:42.708576","CLASSIFICATION_TYPE":"U","MEAN_MOTION":13.21827229,"ECCENTRICITY":0.00018663,"INCLINATION":87.923,"RA_OF_ASC_NODE":237.2204,"ARG_OF_PERICENTER":99.0194,"MEAN_ANOMALY":261.1151,"EPHEMERIS_TYPE":0,"NORAD_CAT_ID":56052,"ELEMENT_SET_NO":999,"REV_AT_EPOCH":16271,"BSTAR":0.00008645648,"MEAN_MOTION_DOT":4.9e-7,"MEAN_MOTION_DDOT":0},{"OBJECT_NAME":"ONEWEB-0551","OBJECT_ID":"2023-043H","EPOCH":"2026-07-21T03:40:07.858272","CLASSIFICATION_TYPE":"U","MEAN_MOTION":13.15547864,"ECCENTRICITY":0.00023643,"INCLINATION":87.8982,"RA_OF_ASC_NODE":252.4582,"ARG_OF_PERICENTER":98.6686,"MEAN_ANOMALY":261.4713,"EPHEMERIS_TYPE":0,"NORAD_CAT_ID":56053,"ELEMENT_SET_NO":999,"REV_AT_EPOCH":16086,"BSTAR":0.000094210505,"MEAN_MOTION_DOT":4.8e-7,"MEAN_MOTION_DDOT":0},{"OBJECT_NAME":"ONEWEB-0552","OBJECT_ID":"2023-043J","EPOCH":"2026-07-21T03:15:25.927200","CLASSIFICATION_TYPE":"U","MEAN_MOTION":13.218264,"ECCENTRICITY":0.00021328,"INCLINATION":87.9228,"RA_OF_ASC_NODE":237.2261,"ARG_OF_PERICENTER":100.9647,"MEAN_ANOMALY":259.1727,"EPHEMERIS_TYPE":0,"NORAD_CAT_ID":56054,"ELEMENT_SET_NO":999,"REV_AT_EPOCH":16271,"BSTAR":0.000069033753,"MEAN_MOTION_DOT":4.2e-7,"MEAN_MOTION_DDOT":0},{"OBJECT_NAME":"ONEWEB-0553","OBJECT_ID":"2023-043K","EPOCH":"2026-07-21T01:50:16.383264","CLASSIFICATION_TYPE":"U","MEAN_MOTION":13.16594522,"ECCENTRICITY":0.00019487,"INCLINATION":87.9081,"RA_OF_ASC_NODE":222.0421,"ARG_OF_PERICENTER":82.0236,"MEAN_ANOMALY":278.1116,"EPHEMERIS_TYPE":0,"NORAD_CAT_ID":56055,"ELEMENT_SET_NO":999,"REV_AT_EPOCH":16343,"BSTAR":-0.0001339866,"MEAN_MOTION_DOT":-3.8e-7,"MEAN_MOTION_DDOT":0},{"OBJECT_NAME":"ONEWEB-0554","OBJECT_ID":"2023-043L","EPOCH":"2026-07-21T07:00:20.620512","CLASSIFICATION_TYPE":"U","MEAN_MOTION":13.16594671,"ECCENTRICITY":0.00015729,"INCLINATION":87.9076,"RA_OF_ASC_NODE":222.0079,"ARG_OF_PERICENTER":98.2188,"MEAN_ANOMALY":261.9121,"EPHEMERIS_TYPE":0,"NORAD_CAT_ID":56056,"ELEMENT_SET_NO":999,"REV_AT_EPOCH":16344,"BSTAR":0.00010377865,"MEAN_MOTION_DOT":5.3e-7,"MEAN_MOTION_DDOT":0},{"OBJECT_NAME":"ONEWEB-0555","OBJECT_ID":"2023-043M","EPOCH":"2026-07-21T02:26:44.769984","CLASSIFICATION_TYPE":"U","MEAN_MOTION":13.16593953,"ECCENTRICITY":0.00020084,"INCLINATION":87.9076,"RA_OF_ASC_NODE":222.0349,"ARG_OF_PERICENTER":76.1337,"MEAN_ANOMALY":284.0018,"EPHEMERIS_TYPE":0,"NORAD_CAT_ID":56057,"ELEMENT_SET_NO":999,"REV_AT_EPOCH":16342,"BSTAR":-0.000056752088,"MEAN_MOTION_DOT":-9e-8,"MEAN_MOTION_DDOT":0},{"OBJECT_NAME":"ONEWEB-0557","OBJECT_ID":"2023-043N","EPOCH":"2026-07-21T02:47:15.948384","CLASSIFICATION_TYPE":"U","MEAN_MOTION":13.16593878,"ECCENTRICITY":0.00009913,"INCLINATION":87.9076,"RA_OF_ASC_NODE":222.0418,"ARG_OF_PERICENTER":65.0632,"MEAN_ANOMALY":295.0601,"EPHEMERIS_TYPE":0,"NORAD_CAT_ID":56058,"ELEMENT_SET_NO":999,"REV_AT_EPOCH":16342,"BSTAR":0.0004978702,"MEAN_MOTION_DOT":0.00000203,"MEAN_MOTION_DDOT":0}]}
