ONEWEB-0674             
1 55833U 23029AP  26202.12911185  .00000167  00000+0  41728-3 0  9998
2 55833  87.8956 282.9525 0001668 106.9923 253.1389 13.14501353163875
ONEWEB-0675             
1 55834U 23029AQ  26202.09735331 -.00000001  00000+0 -34540-4 0  9996
2 55834  87.9185 298.2252 0002209  95.3585 264.7800 13.19725727163396
ONEWEB-0720             
1 55835U 23029AR  26201.71036294 -.00000031  00000+0 -10992-3 0  9994
2 55835  87.9182 298.3018 0002221 107.2200 252.9176 13.19726208163262
ONEWEB-0537             
1 56046U 23043A   26202.08924834 -.00000033  00000+0 -12028-3 0  9996
2 56046  87.9078 222.0370 0002133  87.4333 272.7042 13.16593924163428
ONEWEB-0538             
1 56047U 23043B   26202.08291182 -.00000047  00000+0 -15728-3 0  9995
2 56047  87.9081 222.0412 0002342  91.5764 268.5635 13.16594349163430
ONEWEB-0546             
1 56048U 23043C   26202.29823797 -.00000066  00000+0 -20625-3 0  9995
2 56048  87.9084 221.9987 0002146  73.6123 286.5244 13.16593760163455
ONEWEB-0547             
1 56049U 23043D   26202.16010930 -.00000118  00000+0 -31839-3 0  9996
2 56049  87.9236 237.2135 0002242  97.6829 262.4559 13.21822985162716
ONEWEB-0548             
1 56050U 23043E   26202.09477269  .00000005  00000+0 -19860-4 0  9997
2 56050  87.9076 222.0342 0001605  95.5477 264.5837 13.16595149163424
ONEWEB-0549             
1 56051U 23043F   26202.22991996 -.00000034  00000+0 -11362-3 0  9992
2 56051  87.9228 237.2042 0002460  94.3329 265.8086 13.21823759162721
ONEWEB-0550             
1 56052U 23043G   26202.14077209  .00000049  00000+0  86456-4 0  9997
2 56052  87.9230 237.2204 0001866  99.0194 261.1151 13.21827229162713
ONEWEB-0551             
1 56053U 23043H   26202.15286873  .00000048  00000+0  94211-4 0  9995
2 56053  87.8982 252.4582 0002364  98.6686 261.4713 13.15547864160868
ONEWEB-0552             
1 56054U 23043J   26202.13571675  .00000042  00000+0  69034-4 0  9990
2 56054  87.9228 237.2261 0002132 100.9647 259.1727 13.21826400162713
ONEWEB-0553             
1 56055U 23043K   26202.07657851 -.00000038  00000+0 -13399-3 0  9994
2 56055  87.9081 222.0421 0001948  82.0236 278.1116 13.16594522163433
ONEWEB-0554             
1 56056U 23043L   26202.29190533  .00000053  00000+0  10378-3 0  9997
2 56056  87.9076 222.0079 0001572  98.2188 261.9121 13.16594671163447
ONEWEB-0555             
1 56057U 23043M   26202.10190706 -.00000009  00000+0 -56752-4 0  9990
2 56057  87.9076 222.0349 0002008  76.1337 284.0018 13.16593953163425
ONEWEB-0557             
1 56058U 23043N   26202.11615681  .00000203  00000+0  49787-3 0  9999
2 56058  87.9076 222.0418 0000991  65.0632 295.0601 13.16593878163423
